COSMOS 2251 DEB         
1 33834U 93036CB  17345.81936448  .00000894  00000-0  15148-3 0  9998
2 33834  74.0743 352.0262 0060835 107.5957 307.2700 14.69664310470813
